format  = 'OEF2.0'       ! file format
rectype = 'ML'           ! record type (1L/ML)
refsys  = ECLM J2000     ! default reference system
END_OF_HEADER
594938
! Keplerian elements: a, e, i, long. node, arg. peric., mean anomaly
 KEP   2.1862529035694496E+00   0.471532457444764   29.653379017561  115.306439724725  156.182937830695   19.186943910262
 MJD     59400.000000000 TDT
! Non-gravitational parameters: model used, number of model parameters, dimension
 LSP   0  0    6
! PERIHELION   1.1553636993535970E+00
! APHELION   3.2171421077853020E+00
! ANODE   2.0055107251907263E+00
! DNODE   1.7136183006406530E-01
! MOID   1.6548778599711952E-01
! PERIOD   1.1807257257374972E+03
! PHA F
! VINFTY    15.6569075747433
! ORB_TYPE Amor  
! RMS    2.98765E-08   9.89434E-08   9.90867E-06   1.78498E-05   2.06795E-05   7.29429E-06
 COV   8.926032596025367E-16  2.065489044495413E-15 -5.812862142082790E-14
 COV  -1.567099429091936E-14 -2.264420217316145E-13  5.515788413777740E-15
 COV   9.789798255405556E-15 -1.613421117841885E-13 -2.166099077831868E-13
 COV  -2.831308085480626E-13 -5.576140362095858E-14  9.818168916269387E-11
 COV  -1.412618908242887E-11  2.477482563520859E-11  8.407917071810944E-12
 COV   3.186157780285690E-10 -2.885307918391774E-10  2.141260075815351E-11
 COV   4.276425357818308E-10 -7.614963748674379E-11  5.320673201166411E-11
 COR   1.000000000000000E+00  6.987258175491952E-01 -1.963566161883061E-01
 COR  -2.938554020488571E-02 -3.665112767185615E-01  2.531017054016899E-02
 COR   9.999999999999999E-01 -1.645680852655538E-01 -1.226472478171628E-01
 COR  -1.383756933785132E-01 -7.726157082099928E-02  1.000000000000000E+00
 COR  -7.986860996461922E-02  1.209079641970596E-01  1.163295042135799E-01
 COR   1.000000000000000E+00 -7.816603455795714E-01  1.644570469945225E-01
 COR   1.000000000000000E+00 -5.048287727503850E-01  9.999999999999998E-01
